{
  "type": "FeatureCollection",
  "features": [
    {
      "type": "Feature",
      "properties": {
        "norad_id": 66946,
        "name": "STARLINK-36115",
        "group": "last-30-days",
        "lat": 17.98434263778934,
        "lon": 176.75864992908396,
        "alt_km": 340.10342429452066,
        "timestamp": "2025-12-20T14:38:00.691097+00:00",
        "meta_object_name": "STARLINK-36115",
        "meta_object_id": "2025-286X",
        "meta_epoch": "2025-12-20T06:00:02.999808",
        "meta_mean_motion": 15.77192859,
        "meta_eccentricity": 0.0001004,
        "meta_inclination": 53.1553,
        "meta_ra_of_asc_node": 12.639,
        "meta_arg_of_pericenter": 81.8396,
        "meta_mean_anomaly": 192.6609,
        "meta_ephemeris_type": 0,
        "meta_classification_type": "U",
        "meta_norad_cat_id": 66946,
        "meta_element_set_no": 999,
        "meta_rev_at_epoch": 319,
        "meta_bstar": -0.010577827,
        "meta_mean_motion_dot": -0.01549075,
        "meta_mean_motion_ddot": 0,
        "tle_line1": "1 66946U 25286X   25354.25003472 -.01549075  00000+0 -10578-1 0  9990",
        "tle_line2": "2 66946  53.1553  12.6390 0001004  81.8396 192.6609 15.77192859  3196"
      },
      "geometry": {
        "type": "Point",
        "coordinates": [
          176.75864992908396,
          17.98434263778934
        ]
      }
    },
    {
      "type": "Feature",
      "properties": {
        "norad_id": 66947,
        "name": "STARLINK-36089",
        "group": "last-30-days",
        "lat": 14.80682276583478,
        "lon": 179.40575886923693,
        "alt_km": 340.8630058851104,
        "timestamp": "2025-12-20T14:38:00.691107+00:00",
        "meta_object_name": "STARLINK-36089",
        "meta_object_id": "2025-286Y",
        "meta_epoch": "2025-12-20T06:00:02.999808",
        "meta_mean_motion": 15.7709288,
        "meta_eccentricity": 0.00010232,
        "meta_inclination": 53.1555,
        "meta_ra_of_asc_node": 12.6301,
        "meta_arg_of_pericenter": 93.5304,
        "meta_mean_anomaly": 185.1774,
        "meta_ephemeris_type": 0,
        "meta_classification_type": "U",
        "meta_norad_cat_id": 66947,
        "meta_element_set_no": 999,
        "meta_rev_at_epoch": 319,
        "meta_bstar": -0.010731765,
        "meta_mean_motion_dot": -0.01562601,
        "meta_mean_motion_ddot": 0,
        "tle_line1": "1 66947U 25286Y   25354.25003472 -.01562601  00000+0 -10732-1 0  9993",
        "tle_line2": "2 66947  53.1555  12.6301 0001023  93.5304 185.1774 15.77092880  3194"
      },
      "geometry": {
        "type": "Point",
        "coordinates": [
          179.40575886923693,
          14.80682276583478
        ]
      }
    },
    {
      "type": "Feature",
      "properties": {
        "norad_id": 66948,
        "name": "STARLINK-36116",
        "group": "last-30-days",
        "lat": 16.353846869224622,
        "lon": 178.13130724417863,
        "alt_km": 340.4976819508038,
        "timestamp": "2025-12-20T14:38:00.691117+00:00",
        "meta_object_name": "STARLINK-36116",
        "meta_object_id": "2025-286Z",
        "meta_epoch": "2025-12-20T06:00:02.999808",
        "meta_mean_motion": 15.77117371,
        "meta_eccentricity": 9.061e-05,
        "meta_inclination": 53.1554,
        "meta_ra_of_asc_node": 12.6344,
        "meta_arg_of_pericenter": 84.6271,
        "meta_mean_anomaly": 192.0733,
        "meta_ephemeris_type": 0,
        "meta_classification_type": "U",
        "meta_norad_cat_id": 66948,
        "meta_element_set_no": 999,
        "meta_rev_at_epoch": 319,
        "meta_bstar": -0.010706373,
        "meta_mean_motion_dot": -0.01560793,
        "meta_mean_motion_ddot": 0,
        "tle_line1": "1 66948U 25286Z   25354.25003472 -.01560793  00000+0 -10706-1 0  9995",
        "tle_line2": "2 66948  53.1554  12.6344 0000906  84.6271 192.0733 15.77117371  3199"
      },
      "geometry": {
        "type": "Point",
        "coordinates": [
          178.13130724417863,
          16.353846869224622
        ]
      }
    },
    {
      "type": "Feature",
      "properties": {
        "norad_id": 66949,
        "name": "STARLINK-36096",
        "group": "last-30-days",
        "lat": 13.245601380506375,
        "lon": -179.33186828501567,
        "alt_km": 341.0589950264948,
        "timestamp": "2025-12-20T14:38:00.691129+00:00",
        "meta_object_name": "STARLINK-36096",
        "meta_object_id": "2025-286AA",
        "meta_epoch": "2025-12-20T06:00:02.999808",
        "meta_mean_motion": 15.77068983,
        "meta_eccentricity": 0.00010006,
        "meta_inclination": 53.1555,
        "meta_ra_of_asc_node": 12.6261,
        "meta_arg_of_pericenter": 94.1898,
        "meta_mean_anomaly": 186.5423,
        "meta_ephemeris_type": 0,
        "meta_classification_type": "U",
        "meta_norad_cat_id": 66949,
        "meta_element_set_no": 999,
        "meta_rev_at_epoch": 319,
        "meta_bstar": -0.010836702,
        "meta_mean_motion_dot": -0.01574419,
        "meta_mean_motion_ddot": 0,
        "tle_line1": "1 66949U 25286AA  25354.25003472 -.01574419  00000+0 -10837-1 0  9991",
        "tle_line2": "2 66949  53.1555  12.6261 0001000  94.1898 186.5423 15.77068983  3194"
      },
      "geometry": {
        "type": "Point",
        "coordinates": [
          -179.33186828501567,
          13.245601380506375
        ]
      }
    },
    {
      "type": "Feature",
      "properties": {
        "norad_id": 66950,
        "name": "STARLINK-36111",
        "group": "last-30-days",
        "lat": 10.081455182671744,
        "lon": -176.83518655538452,
        "alt_km": 342.0320796723063,
        "timestamp": "2025-12-20T14:38:00.691141+00:00",
        "meta_object_name": "STARLINK-36111",
        "meta_object_id": "2025-286AB",
        "meta_epoch": "2025-12-20T06:00:02.999808",
        "meta_mean_motion": 15.76999058,
        "meta_eccentricity": 0.00012017,
        "meta_inclination": 53.1557,
        "meta_ra_of_asc_node": 12.6176,
        "meta_arg_of_pericenter": 85.0091,
        "meta_mean_anomaly": 199.8181,
        "meta_ephemeris_type": 0,
        "meta_classification_type": "U",
        "meta_norad_cat_id": 66950,
        "meta_element_set_no": 999,
        "meta_rev_at_epoch": 319,
        "meta_bstar": -0.010965632,
        "meta_mean_motion_dot": -0.0158651,
        "meta_mean_motion_ddot": 0,
        "tle_line1": "1 66950U 25286AB  25354.25003472 -.01586510  00000+0 -10966-1 0  9991",
        "tle_line2": "2 66950  53.1557  12.6176 0001201  85.0091 199.8181 15.76999058  3193"
      },
      "geometry": {
        "type": "Point",
        "coordinates": [
          -176.83518655538452,
          10.081455182671744
        ]
      }
    },
    {
      "type": "Feature",
      "properties": {
        "norad_id": 66951,
        "name": "STARLINK-35999",
        "group": "last-30-days",
        "lat": 8.477719877735638,
        "lon": -175.5955764356184,
        "alt_km": 342.43213125779494,
        "timestamp": "2025-12-20T14:38:00.691152+00:00",
        "meta_object_name": "STARLINK-35999",
        "meta_object_id": "2025-286AC",
        "meta_epoch": "2025-12-20T06:00:02.999808",
        "meta_mean_motion": 15.76956954,
        "meta_eccentricity": 0.00010232,
        "meta_inclination": 53.1558,
        "meta_ra_of_asc_node": 12.6129,
        "meta_arg_of_pericenter": 89.0915,
        "meta_mean_anomaly": 197.8186,
        "meta_ephemeris_type": 0,
        "meta_classification_type": "U",
        "meta_norad_cat_id": 66951,
        "meta_element_set_no": 999,
        "meta_rev_at_epoch": 319,
        "meta_bstar": -0.011085801,
        "meta_mean_motion_dot": -0.01630516,
        "meta_mean_motion_ddot": 0,
        "tle_line1": "1 66951U 25286AC  25354.25003472 -.01630516  00000+0 -11086-1 0  9992",
        "tle_line2": "2 66951  53.1558  12.6129 0001023  89.0915 197.8186 15.76956954  3195"
      },
      "geometry": {
        "type": "Point",
        "coordinates": [
          -175.5955764356184,
          8.477719877735638
        ]
      }
    },
    {
      "type": "Feature",
      "properties": {
        "norad_id": 66952,
        "name": "STARLINK-36122",
        "group": "last-30-days",
        "lat": 11.66057809334262,
        "lon": -178.07184514427092,
        "alt_km": 341.703893529314,
        "timestamp": "2025-12-20T14:38:00.691162+00:00",
        "meta_object_name": "STARLINK-36122",
        "meta_object_id": "2025-286AD",
        "meta_epoch": "2025-12-20T06:00:02.999808",
        "meta_mean_motion": 15.77032698,
        "meta_eccentricity": 0.0001064,
        "meta_inclination": 53.1556,
        "meta_ra_of_asc_node": 12.6219,
        "meta_arg_of_pericenter": 82.6307,
        "meta_mean_anomaly": 200.1586,
        "meta_ephemeris_type": 0,
        "meta_classification_type": "U",
        "meta_norad_cat_id": 66952,
        "meta_element_set_no": 999,
        "meta_rev_at_epoch": 319,
        "meta_bstar": -0.010918064,
        "meta_mean_motion_dot": -0.01582501,
        "meta_mean_motion_ddot": 0,
        "tle_line1": "1 66952U 25286AD  25354.25003472 -.01582501  00000+0 -10918-1 0  9996",
        "tle_line2": "2 66952  53.1556  12.6219 0001064  82.6307 200.1586 15.77032698  3196"
      },
      "geometry": {
        "type": "Point",
        "coordinates": [
          -178.07184514427092,
          11.66057809334262
        ]
      }
    }
  ]
}